{
    "links": {
        "self": "http://www.neowsapp.com/rest/v1/neo/3477700?api_key=iIulBulltgU6a56xZRHN4H3l9WmuAYTsLGpBGhQ2"
    },
    "id": "3477700",
    "neo_reference_id": "3477700",
    "name": "(2009 WN6)",
    "designation": "2009 WN6",
    "nasa_jpl_url": "http://ssd.jpl.nasa.gov/sbdb.cgi?sstr=3477700",
    "absolute_magnitude_h": 24.7,
    "estimated_diameter": {
        "kilometers": {
            "estimated_diameter_min": 0.0305179233,
            "estimated_diameter_max": 0.0682401509
        },
        "meters": {
            "estimated_diameter_min": 30.5179232594,
            "estimated_diameter_max": 68.2401509401
        },
        "miles": {
            "estimated_diameter_min": 0.0189629525,
            "estimated_diameter_max": 0.0424024508
        },
        "feet": {
            "estimated_diameter_min": 100.1244233463,
            "estimated_diameter_max": 223.8850168104
        }
    },
    "is_potentially_hazardous_asteroid": false,
    "close_approach_data": [
        {
            "close_approach_date": "2003-12-03",
            "close_approach_date_full": "2003-Dec-03 12:10",
            "epoch_date_close_approach": 1070453400000,
            "relative_velocity": {
                "kilometers_per_second": "16.5252441166",
                "kilometers_per_hour": "59490.8788197384",
                "miles_per_hour": "36965.3185644091"
            },
            "miss_distance": {
                "astronomical": "0.3216852438",
                "lunar": "125.1355598382",
                "kilometers": "48123427.282910706",
                "miles": "29902511.1157355028"
            },
            "orbiting_body": "Earth"
        },
        {
            "close_approach_date": "2005-11-27",
            "close_approach_date_full": "2005-Nov-27 11:04",
            "epoch_date_close_approach": 1133089440000,
            "relative_velocity": {
                "kilometers_per_second": "13.5833521081",
                "kilometers_per_hour": "48900.0675892482",
                "miles_per_hour": "30384.6003306637"
            },
            "miss_distance": {
                "astronomical": "0.2246382821",
                "lunar": "87.3842917369",
                "kilometers": "33605408.522619127",
                "miles": "20881432.5710608726"
            },
            "orbiting_body": "Earth"
        },
        {
            "close_approach_date": "2007-11-21",
            "close_approach_date_full": "2007-Nov-21 05:35",
            "epoch_date_close_approach": 1195623300000,
            "relative_velocity": {
                "kilometers_per_second": "10.7226081843",
                "kilometers_per_hour": "38601.3894634681",
                "miles_per_hour": "23985.4022474533"
            },
            "miss_distance": {
                "astronomical": "0.1321687821",
                "lunar": "51.4136562369",
                "kilometers": "19772168.282654127",
                "miles": "12285855.6681438726"
            },
            "orbiting_body": "Earth"
        },
        {
            "close_approach_date": "2008-03-20",
            "close_approach_date_full": "2008-Mar-20 17:49",
            "epoch_date_close_approach": 1206035340000,
            "relative_velocity": {
                "kilometers_per_second": "7.4107437525",
                "kilometers_per_hour": "26678.6775088987",
                "miles_per_hour": "16577.0926999043"
            },
            "miss_distance": {
                "astronomical": "0.0471773101",
                "lunar": "18.3519736289",
                "kilometers": "7057625.103289487",
                "miles": "4385404.8852574406"
            },
            "orbiting_body": "Mars"
        },
        {
            "close_approach_date": "2009-11-11",
            "close_approach_date_full": "2009-Nov-11 21:50",
            "epoch_date_close_approach": 1257976200000,
            "relative_velocity": {
                "kilometers_per_second": "8.1048069701",
                "kilometers_per_hour": "29177.3050922076",
                "miles_per_hour": "18129.642711322"
            },
            "miss_distance": {
                "astronomical": "0.0506051715",
                "lunar": "19.6854117135",
                "kilometers": "7570425.867384705",
                "miles": "4704044.504550729"
            },
            "orbiting_body": "Earth"
        }
    ],
    "orbital_data": {
        "orbit_id": "8",
        "orbit_determination_date": "2017-04-06 08:59:07",
        "first_observation_date": "2009-11-18",
        "last_observation_date": "2009-12-16",
        "data_arc_in_days": 28,
        "observations_used": 34,
        "orbit_uncertainty": "8",
        "minimum_orbit_intersection": ".00422256",
        "jupiter_tisserand_invariant": "4.305",
        "epoch_osculation": "2455156.5",
        "eccentricity": ".3867991851065121",
        "semi_major_axis": "1.582759430438159",
        "inclination": ".7352004335727926",
        "ascending_node_longitude": "57.35714668884727",
        "orbital_period": "727.3120644860497",
        "perihelion_distance": ".9705493725250319",
        "perihelion_argument": "317.3609721001461",
        "aphelion_distance": "2.194969488351286",
        "perihelion_time": "2455120.041492687494",
        "mean_anomaly": "18.04598503639136",
        "mean_motion": ".4949732275572682",
        "equinox": "J2000",
        "orbit_class": {
            "orbit_class_type": "APO",
            "orbit_class_description": "Near-Earth asteroid orbits which cross the Earth’s orbit similar to that of 1862 Apollo",
            "orbit_class_range": "a (semi-major axis) > 1.0 AU; q (perihelion) < 1.017 AU"
        }
    },
    "is_sentry_object": false
}